{"type": "FeatureCollection", "features": [ {"type": "Feature", "properties": {"norad_id": 34464, "name": "COSMOS 2251 DEB", "group": "cosmos-2251-debris", "lat": 72.47948358288913, "lon": 143.80658458499872, "alt_km": 488.1366074319503, "timestamp": "2025-12-12T16:50:33.540868+00:00", "meta": {"OBJECT_NAME": "COSMOS 2251 DEB", "OBJECT_ID": "1993-036TH", "EPOCH": "2025-12-12T07:02:46.366080", "MEAN_MOTION": 15.2696136, "ECCENTRICITY": 0.00158603, "INCLINATION": 73.9887, "RA_OF_ASC_NODE": 79.2206, "ARG_OF_PERICENTER": 257.724, "MEAN_ANOMALY": 102.2185, "EPHEMERIS_TYPE": 0, "CLASSIFICATION_TYPE": "U", "NORAD_CAT_ID": 34464, "ELEMENT_SET_NO": 999, "REV_AT_EPOCH": 89833, "BSTAR": 0.0040342509, "MEAN_MOTION_DOT": 0.00108738, "MEAN_MOTION_DDOT": 0}, "tle": {"line1": "1 34464U 93036TH  25346.29359220  .00108738  00000+0  40343-2 0  9996", "line2": "2 34464  73.9887  79.2206 0015860 257.7240 102.2185 15.26961360898337"}}, "geometry": {"type": "Point", "coordinates": [143.80658458499872, 72.47948358288913]}}, {"type": "Feature", "properties": {"norad_id": 34468, "name": "COSMOS 2251 DEB", "group": "cosmos-2251-debris", "lat": -39.47713784940069, "lon": 103.61670449402392, "alt_km": 709.2797646386398, "timestamp": "2025-12-12T16:50:33.540879+00:00", "meta": {"OBJECT_NAME": "COSMOS 2251 DEB", "OBJECT_ID": "1993-036TM", "EPOCH": "2025-12-12T03:45:51.703488", "MEAN_MOTION": 14.4762272, "ECCENTRICITY": 0.00763561, "INCLINATION": 74.0128, "RA_OF_ASC_NODE": 118.2959, "ARG_OF_PERICENTER": 263.3466, "MEAN_ANOMALY": 95.8998, "EPHEMERIS_TYPE": 0, "CLASSIFICATION_TYPE": "U", "NORAD_CAT_ID": 34468, "ELEMENT_SET_NO": 999, "REV_AT_EPOCH": 88453, "BSTAR": 0.0005887288, "MEAN_MOTION_DOT": 2.221e-05, "MEAN_MOTION_DDOT": 0}, "tle": {"line1": "1 34468U 93036TM  25346.15684842  .00002221  00000+0  58873-3 0  9994", "line2": "2 34468  74.0128 118.2959 0076356 263.3466  95.8998 14.47622720884532"}}, "geometry": {"type": "Point", "coordinates": [103.61670449402392, -39.47713784940069]}}, {"type": "Feature", "properties": {"norad_id": 34472, "name": "COSMOS 2251 DEB", "group": "cosmos-2251-debris", "lat": -4.426025528999617, "lon": 96.94129925893154, "alt_km": 1139.4773325949527, "timestamp": "2025-12-12T16:50:33.540889+00:00", "meta": {"OBJECT_NAME": "COSMOS 2251 DEB", "OBJECT_ID": "1993-036TR", "EPOCH": "2025-12-10T17:33:33.413472", "MEAN_MOTION": 13.70324681, "ECCENTRICITY": 0.03280455, "INCLINATION": 74.083, "RA_OF_ASC_NODE": 101.446, "ARG_OF_PERICENTER": 232.9036, "MEAN_ANOMALY": 124.1688, "EPHEMERIS_TYPE": 0, "CLASSIFICATION_TYPE": "U", "NORAD_CAT_ID": 34472, "ELEMENT_SET_NO": 999, "REV_AT_EPOCH": 83699, "BSTAR": 0.0010864797, "MEAN_MOTION_DOT": 1.379e-05, "MEAN_MOTION_DDOT": 0}, "tle": {"line1": "1 34472U 93036TR  25344.73163673  .00001379  00000+0  10865-2 0  9996", "line2": "2 34472  74.0830 101.4460 0328045 232.9036 124.1688 13.70324681836997"}}, "geometry": {"type": "Point", "coordinates": [96.94129925893154, -4.426025528999617]}}, {"type": "Feature", "properties": {"norad_id": 34474, "name": "COSMOS 2251 DEB", "group": "cosmos-2251-debris", "lat": 53.013504902712995, "lon": 123.9743186404327, "alt_km": 847.5968094999816, "timestamp": "2025-12-12T16:50:33.540899+00:00", "meta": {"OBJECT_NAME": "COSMOS 2251 DEB", "OBJECT_ID": "1993-036TT", "EPOCH": "2025-12-12T01:13:13.592064", "MEAN_MOTION": 14.06405494, "ECCENTRICITY": 0.01982757, "INCLINATION": 74.0782, "RA_OF_ASC_NODE": 327.3812, "ARG_OF_PERICENTER": 41.4304, "MEAN_ANOMALY": 25.6998, "EPHEMERIS_TYPE": 0, "CLASSIFICATION_TYPE": "U", "NORAD_CAT_ID": 34474, "ELEMENT_SET_NO": 999, "REV_AT_EPOCH": 85499, "BSTAR": 0.0028439459, "MEAN_MOTION_DOT": 5.592e-05, "MEAN_MOTION_DDOT": 0}, "tle": {"line1": "1 34474U 93036TT  25346.05085176  .00005592  00000+0  28439-2 0  9993", "line2": "2 34474  74.0782 327.3812 0198275  41.4304  25.6998 14.06405494854997"}}, "geometry": {"type": "Point", "coordinates": [123.9743186404327, 53.013504902712995]}}, {"type": "Feature", "properties": {"norad_id": 34476, "name": "COSMOS 2251 DEB", "group": "cosmos-2251-debris", "lat": 72.12716932804358, "lon": -160.24132854052584, "alt_km": 1162.5893413993408, "timestamp": "2025-12-12T16:50:33.540909+00:00", "meta": {"OBJECT_NAME": "COSMOS 2251 DEB", "OBJECT_ID": "1993-036TV", "EPOCH": "2025-12-12T05:56:21.402816", "MEAN_MOTION": 13.82020455, "ECCENTRICITY": 0.03202691, "INCLINATION": 74.0049, "RA_OF_ASC_NODE": 83.3324, "ARG_OF_PERICENTER": 303.0021, "MEAN_ANOMALY": 54.0695, "EPHEMERIS_TYPE": 0, "CLASSIFICATION_TYPE": "U", "NORAD_CAT_ID": 34476, "ELEMENT_SET_NO": 999, "REV_AT_EPOCH": 83631, "BSTAR": 0.0050228987, "MEAN_MOTION_DOT": 7.967e-05, "MEAN_MOTION_DDOT": 0}, "tle": {"line1": "1 34476U 93036TV  25346.24746994  .00007967  00000+0  50229-2 0  9998", "line2": "2 34476  74.0049  83.3324 0320269 303.0021  54.0695 13.82020455836314"}}, "geometry": {"type": "Point", "coordinates": [-160.24132854052584, 72.12716932804358]}}, {"type": "Feature", "properties": {"norad_id": 34477, "name": "COSMOS 2251 DEB", "group": "cosmos-2251-debris", "lat": -17.829003429319993, "lon": 64.27123853211205, "alt_km": 702.6191181071927, "timestamp": "2025-12-12T16:50:33.540919+00:00", "meta": {"OBJECT_NAME": "COSMOS 2251 DEB", "OBJECT_ID": "1993-036TW", "EPOCH": "2025-12-12T07:18:08.568576", "MEAN_MOTION": 14.56859876, "ECCENTRICITY": 0.00769027, "INCLINATION": 73.9789, "RA_OF_ASC_NODE": 70.3308, "ARG_OF_PERICENTER": 257.5649, "MEAN_ANOMALY": 159.1179, "EPHEMERIS_TYPE": 0, "CLASSIFICATION_TYPE": "U", "NORAD_CAT_ID": 34477, "ELEMENT_SET_NO": 999, "REV_AT_EPOCH": 88619, "BSTAR": 0.001306089, "MEAN_MOTION_DOT": 6.069e-05, "MEAN_MOTION_DDOT": 0}, "tle": {"line1": "1 34477U 93036TW  25346.30426584  .00006069  00000+0  13061-2 0  9991", "line2": "2 34477  73.9789  70.3308 0076902 257.5649 159.1179 14.56859876886197"}}, "geometry": {"type": "Point", "coordinates": [64.27123853211205, -17.829003429319993]}}, {"type": "Feature", "properties": {"norad_id": 34478, "name": "COSMOS 2251 DEB", "group": "cosmos-2251-debris", "lat": -30.31373416528883, "lon": -163.40336640730257, "alt_km": 524.809190262532, "timestamp": "2025-12-12T16:50:33.540929+00:00", "meta": {"OBJECT_NAME": "COSMOS 2251 DEB", "OBJECT_ID": "1993-036TX", "EPOCH": "2025-12-11T21:06:07.015968", "MEAN_MOTION": 15.0789624, "ECCENTRICITY": 0.0035038, "INCLINATION": 74.0401, "RA_OF_ASC_NODE": 8.6555, "ARG_OF_PERICENTER": 230.1524, "MEAN_ANOMALY": 198.2709, "EPHEMERIS_TYPE": 0, "CLASSIFICATION_TYPE": "U", "NORAD_CAT_ID": 34478, "ELEMENT_SET_NO": 999, "REV_AT_EPOCH": 88960, "BSTAR": 0.0034381, "MEAN_MOTION_DOT": 0.00053866, "MEAN_MOTION_DDOT": 0}, "tle": {"line1": "1 34478U 93036TX  25345.87924787  .00053866  00000+0  34381-2 0  9996", "line2": "2 34478  74.0401   8.6555 0035038 230.1524 198.2709 15.07896240889608"}}, "geometry": {"type": "Point", "coordinates": [-163.40336640730257, -30.31373416528883]}}, {"type": "Feature", "properties": {"norad_id": 34481, "name": "COSMOS 2251 DEB", "group": "cosmos-2251-debris", "lat": 3.2575234514391234, "lon": -127.41048202918641, "alt_km": 753.5321369915546, "timestamp": "2025-12-12T16:50:33.540940+00:00", "meta": {"OBJECT_NAME": "COSMOS 2251 DEB", "OBJECT_ID": "1993-036UA", "EPOCH": "2025-12-12T06:13:51.930048", "MEAN_MOTION": 14.32548984, "ECCENTRICITY": 0.00707304, "INCLINATION": 73.9804, "RA_OF_ASC_NODE": 54.3361, "ARG_OF_PERICENTER": 228.7654, "MEAN_ANOMALY": 189.0333, "EPHEMERIS_TYPE": 0, "CLASSIFICATION_TYPE": "U", "NORAD_CAT_ID": 34481, "ELEMENT_SET_NO": 999, "REV_AT_EPOCH": 87442, "BSTAR": 0.0011222359, "MEAN_MOTION_DOT": 3.104e-05, "MEAN_MOTION_DDOT": 0}, "tle": {"line1": "1 34481U 93036UA  25346.25962882  .00003104  00000+0  11222-2 0  9990", "line2": "2 34481  73.9804  54.3361 0070730 228.7654 189.0333 14.32548984874426"}}, "geometry": {"type": "Point", "coordinates": [-127.41048202918641, 3.2575234514391234]}}, {"type": "Feature", "properties": {"norad_id": 34482, "name": "COSMOS 2251 DEB", "group": "cosmos-2251-debris", "lat": -16.483911590460426, "lon": -141.19241011845264, "alt_km": 651.9214256890646, "timestamp": "2025-12-12T16:50:33.540950+00:00", "meta": {"OBJECT_NAME": "COSMOS 2251 DEB", "OBJECT_ID": "1993-036UB", "EPOCH": "2025-12-12T02:47:15.492192", "MEAN_MOTION": 14.69165188, "ECCENTRICITY": 0.00449813, "INCLINATION": 74.0369, "RA_OF_ASC_NODE": 224.7998, "ARG_OF_PERICENTER": 284.931, "MEAN_ANOMALY": 201.4699, "EPHEMERIS_TYPE": 0, "CLASSIFICATION_TYPE": "U", "NORAD_CAT_ID": 34482, "ELEMENT_SET_NO": 999, "REV_AT_EPOCH": 88178, "BSTAR": 0.0026859629, "MEAN_MOTION_DOT": 0.00016058, "MEAN_MOTION_DDOT": 0}, "tle": {"line1": "1 34482U 93036UB  25346.11615153  .00016058  00000+0  26860-2 0  9998", "line2": "2 34482  74.0369 224.7998 0044981 284.9310 201.4699 14.69165188881788"}}, "geometry": {"type": "Point", "coordinates": [-141.19241011845264, -16.483911590460426]}}, {"type": "Feature", "properties": {"norad_id": 34544, "name": "COSMOS 2251 DEB", "group": "cosmos-2251-debris", "lat": -60.288883571570764, "lon": 54.46431685227313, "alt_km": 782.170757775345, "timestamp": "2025-12-12T16:50:33.540960+00:00", "meta": {"OBJECT_NAME": "COSMOS 2251 DEB", "OBJECT_ID": "1993-036UE", "EPOCH": "2025-12-12T00:21:12.621024", "MEAN_MOTION": 13.54662124, "ECCENTRICITY": 0.0384208, "INCLINATION": 73.9143, "RA_OF_ASC_NODE": 205.2029, "ARG_OF_PERICENTER": 233.7808, "MEAN_ANOMALY": 260.6102, "EPHEMERIS_TYPE": 0, "CLASSIFICATION_TYPE": "U", "NORAD_CAT_ID": 34544, "ELEMENT_SET_NO": 999, "REV_AT_EPOCH": 82872, "BSTAR": 0.00036681, "MEAN_MOTION_DOT": 3.79e-06, "MEAN_MOTION_DDOT": 0}, "tle": {"line1": "1 34544U 93036UE  25346.01472941  .00000379  00000+0  36681-3 0  9994", "line2": "2 34544  73.9143 205.2029 0384208 233.7808 260.6102 13.54662124828723"}}, "geometry": {"type": "Point", "coordinates": [54.46431685227313, -60.288883571570764]}}]}